H1 CPF 01  gfz 2021 10 16 12  7892 tandemx   
H2 1003001  6202 36605    2021 10 16 12 59 42 2021 10 21 00 00 42   120 1 1  0 0 0
H9
10 0 59504  10062.000000  0   -4583326.134  -4818373.858   1790010.376
10 0 59504  10182.000000  0   -4508402.147  -4481737.414   2645234.310
10 0 59504  10302.000000  0   -4348077.164  -4068782.511   3453867.937
10 0 59504  10422.000000  0   -4103904.742  -3588220.765   4201677.138
10 0 59504  10542.000000  0   -3779075.287  -3049910.449   4875512.190
10 0 59504  10662.000000  0   -3378372.761  -2464649.066   5463539.043
10 0 59504  10782.000000  0   -2908100.775  -1843953.069   5955444.430
10 0 59504  10902.000000  0   -2375979.096  -1199828.393   6342613.513
10 0 59504  11022.000000  0   -1791012.217   -544534.605   6618276.564
10 0 59504  11142.000000  0   -1163331.715    109650.851   6777620.262
10 0 59504  11262.000000  0    -504019.230    750661.186   6817864.818
10 0 59504  11382.000000  0     175088.889   1366861.978   6738309.953
10 0 59504  11502.000000  0     861613.703   1947262.177   6540346.626
10 0 59504  11622.000000  0    1542858.966   2481710.293   6227433.562
10 0 59504  11742.000000  0    2206044.953   2961071.944   5805040.338
10 0 59504  11862.000000  0    2838548.340   3377388.217   5280558.397
10 0 59504  11982.000000  0    3428145.314   3724012.037   4663177.838
10 0 59504  12102.000000  0    3963250.395   3995717.459   3963730.009
10 0 59504  12222.000000  0    4433147.574   4188782.823   3194504.084
10 0 59504  12342.000000  0    4828212.913   4301044.733   2369030.829
10 0 59504  12462.000000  0    5140114.861   4331918.779   1501842.202
10 0 59504  12582.000000  0    5361994.022   4282389.164    608211.117
10 0 59504  12702.000000  0    5488614.273   4154965.365   -296125.697
10 0 59504  12822.000000  0    5516480.744   3953607.391  -1195254.080
10 0 59504  12942.000000  0    5443923.170   3683621.647  -2073370.781
10 0 59504  13062.000000  0    5271142.146   3351529.844  -2915068.285
10 0 59504  13182.000000  0    5000217.821   2964915.725  -3705609.265
10 0 59504  13302.000000  0    4635081.877   2532254.028  -4431186.635
10 0 59504  13422.000000  0    4181452.146   2062723.688  -5079163.385
10 0 59504  13542.000000  0    3646733.896   1566011.976  -5638285.872
10 0 59504  13662.000000  0    3039890.710   1052115.024  -6098870.285
10 0 59504  13782.000000  0    2371287.184    531138.042  -6452959.824
10 0 59504  13902.000000  0    1652508.002     13099.568  -6694449.822
10 0 59504  14022.000000  0     896158.047   -492256.896  -6819183.144
10 0 59504  14142.000000  0     115642.860   -975642.274  -6825014.861
10 0 59504  14262.000000  0    -675064.267  -1428387.852  -6711843.191
10 0 59504  14382.000000  0   -1461665.650  -1842596.186  -6481611.623
10 0 59504  14502.000000  0   -2229792.042  -2211276.486  -6138279.734
10 0 59504  14622.000000  0   -2965259.286  -2528461.164  -5687761.755
10 0 59504  14742.000000  0   -3654326.218  -2789302.909  -5137836.056
10 0 59504  14862.000000  0   -4283952.409  -2990151.450  -4498023.100
10 0 59504  14982.000000  0   -4842048.225  -3128606.691  -3779431.051
10 0 59504  15102.000000  0   -5317712.826  -3203547.355  -2994572.440
10 0 59504  15222.000000  0   -5701455.519  -3215134.438  -2157152.731
10 0 59504  15342.000000  0   -5985393.998  -3164788.398  -1281833.411
10 0 59504  15462.000000  0   -6163424.495  -3055140.489   -383974.352
10 0 59504  15582.000000  0   -6231359.087  -2889958.530    520640.260
10 0 59504  15702.000000  0   -6187026.588  -2674049.184   1416086.788
10 0 59504  15822.000000  0   -6030332.135  -2413138.415   2286592.723
10 0 59504  15942.000000  0   -5763273.284  -2113732.866   3116823.225
10 0 59504  16062.000000  0   -5389916.012  -1782967.173   3892158.767
10 0 59504  16182.000000  0   -4916326.687  -1428439.514   4598959.421
10 0 59504  16302.000000  0   -4350464.370  -1058040.527   5224805.571
10 0 59504  16422.000000  0   -3702039.368   -679781.187   5758714.418
10 0 59504  16542.000000  0   -2982338.791   -301621.636   6191330.572
10 0 59504  16662.000000  0   -2204021.819     68695.174   6515085.338
10 0 59504  16782.000000  0   -1380890.528    423799.613   6724322.200
10 0 59504  16902.000000  0    -527642.147    756839.709   6815389.579
10 0 59504  17022.000000  0     340393.972   1061612.071   6786700.169
10 0 59504  17142.000000  0    1207530.929   1332676.803   6638756.735
10 0 59504  17262.000000  0    2058006.958   1565454.980   6374143.763
10 0 59504  17382.000000  0    2876271.067   1756306.099   5997484.954
10 0 59504  17502.000000  0    3647268.622   1902585.221   5515368.092
10 0 59504  17622.000000  0    4356721.532   2002678.535   4936235.004
10 0 59504  17742.000000  0    4991396.616   2056017.651   4270240.397
10 0 59504  17862.000000  0    5539361.541   2063072.262   3529080.060
10 0 59504  17982.000000  0    5990218.946   2025318.828   2725784.944
10 0 59504  18102.000000  0    6335310.948   1945188.251   1874492.319
10 0 59504  18222.000000  0    6567895.215   1825992.756    990193.443
10 0 59504  18342.000000  0    6683281.969   1671832.707     88462.473
10 0 59504  18462.000000  0    6678931.194   1487487.792   -814826.154
10 0 59504  18582.000000  0    6554505.259   1278293.451  -1703786.521
10 0 59504  18702.000000  0    6311878.647   1050005.384  -2562807.340
10 0 59504  18822.000000  0    5955103.336    808657.053  -3376832.961
10 0 59504  18942.000000  0    5490330.142    560414.383  -4131630.576
10 0 59504  19062.000000  0    4925689.750    311430.282  -4814038.906
10 0 59504  19182.000000  0    4271137.312     67702.745  -5412192.348
10 0 59504  19302.000000  0    3538266.476   -165059.477  -5915718.759
10 0 59504  19422.000000  0    2740096.198   -381561.395  -6315910.065
10 0 59504  19542.000000  0    1890833.560   -577034.407  -6605861.372
10 0 59504  19662.000000  0    1005620.770   -747334.856  -6780578.398
10 0 59504  19782.000000  0     100267.731   -889027.173  -6837055.613
10 0 59504  19902.000000  0    -809025.598   -999449.380  -6774321.214
10 0 59504  20022.000000  0   -1705951.597  -1076761.475  -6593452.247
10 0 59504  20142.000000  0   -2574381.237  -1119975.393  -6297558.196
10 0 59504  20262.000000  0   -3398647.246  -1128966.325  -5891732.063
10 0 59504  20382.000000  0   -4163822.228  -1104465.714  -5382973.474
10 0 59504  20502.000000  0   -4855990.410  -1048035.421  -4780079.604
10 0 59504  20622.000000  0   -5462504.664   -962023.445  -4093504.278
10 0 59504  20742.000000  0   -5972225.444   -849502.099  -3335187.541
10 0 59504  20862.000000  0   -6375736.921   -714189.047  -2518355.882
10 0 59504  20982.000000  0   -6665533.352   -560352.750  -1657295.718
10 0 59504  21102.000000  0   -6836171.995   -392705.129   -767104.388
10 0 59504  21222.000000  0   -6884387.380   -216281.854    136579.462
10 0 59504  21342.000000  0   -6809160.324    -36314.224   1037857.138
10 0 59504  21462.000000  0   -6611744.384    141903.063   1920857.263
10 0 59504  21582.000000  0   -6295646.025    313145.607   2770024.774
10 0 59504  21702.000000  0   -5866558.831    472391.312   3570403.842
10 0 59504  21822.000000  0   -5332253.224    614947.130   4307908.022
10 0 59504  21942.000000  0   -4702426.040    736566.904   4969571.517
10 0 59504  22062.000000  0   -3988513.945    833557.671   5543776.908
10 0 59504  22182.000000  0   -3203476.703    902872.278   6020456.406
10 0 59504  22302.000000  0   -2361553.665    942185.726   6391264.549
10 0 59504  22422.000000  0   -1477998.747    949954.654   6649719.328
10 0 59504  22542.000000  0    -568799.050    925458.683   6791308.596
10 0 59504  22662.000000  0     349615.258    868822.311   6813562.861
10 0 59504  22782.000000  0    1260666.951    781017.434   6716095.262
10 0 59504  22902.000000  0    2147929.697    663846.911   6500607.946
10 0 59504  23022.000000  0    2995423.259    519908.871   6170864.646
10 0 59504  23142.000000  0    3787902.672    352542.265   5732629.752
10 0 59504  23262.000000  0    4511135.613    165754.541   5193572.819
10 0 59504  23382.000000  0    5152162.969    -35867.612   4563140.319
10 0 59504  23502.000000  0    5699538.663   -247262.730   3852395.742
10 0 59504  23622.000000  0    6143544.218   -463011.280   3073829.126
10 0 59504  23742.000000  0    6476372.336   -677462.919   2241137.742
10 0 59504  23862.000000  0    6692272.561   -884871.494   1368981.637
10 0 59504  23982.000000  0    6787657.491  -1079534.605    472721.350
10 0 59504  24102.000000  0    6761168.312  -1255933.719   -431859.989
10 0 59504  24222.000000  0    6613693.137  -1408871.758  -1328844.732
10 0 59504  24342.000000  0    6348339.898  -1533603.763  -2202469.154
10 0 59504  24462.000000  0    5970364.633  -1625957.877  -3037407.981
10 0 59504  24582.000000  0    5487057.699  -1682443.630  -3819047.215
10 0 59504  24702.000000  0    4907592.013  -1700344.496  -4533740.538
10 0 59504  24822.000000  0    4242837.843  -1677792.942  -5169044.759
10 0 59504  24942.000000  0    3505148.124  -1613827.400  -5713930.459
10 0 59504  25062.000000  0    2708120.110  -1508429.357  -6158963.543
10 0 59504  25182.000000  0    1866340.729  -1362539.660  -6496457.311
10 0 59504  25302.000000  0     995118.315  -1178054.419  -6720594.950
10 0 59504  25422.000000  0     110206.178   -957801.853  -6827519.229
10 0 59504  25542.000000  0    -772477.300   -705499.399  -6815391.427
10 0 59504  25662.000000  0   -1637128.050   -425692.249  -6684419.531
10 0 59504  25782.000000  0   -2468333.191   -123673.234  -6436854.790
10 0 59504  25902.000000  0   -3251339.189    194613.875  -6076956.210
10 0 59504  26022.000000  0   -3972309.079    522686.880  -5610926.150
10 0 59504  26142.000000  0   -4618567.449    853652.025  -5046814.093
10 0 59504  26262.000000  0   -5178826.562   1180342.748  -4394389.761
10 0 59504  26382.000000  0   -5643391.982   1495470.065  -3664985.583
10 0 59504  26502.000000  0   -6004340.291   1791779.966  -2871308.337
99
